start=new Date('2022-08-17T00:00:00.000Z').valueOf();
sats=[{"APOAPSIS":"548.009","FILE":"3538178","SITE":"AFETR","TLE_LINE2":"2 47816  53.0559 332.1526 0001119  86.2436 273.8681 15.06393315 80490","MEAN_MOTION":"15.06393315","MEAN_MOTION_DOT":"-0.00000007","DECAY_DATE":null,"PERIAPSIS":"546.459","ARG_OF_PERICENTER":"86.2436","CLASSIFICATION_TYPE":"U","PERIOD":"95.593","MEAN_ELEMENT_THEORY":"SGP4","NORAD_CAT_ID":"47816","RCS_SIZE":"LARGE","GP_ID":"210367569","TLE_LINE1":"1 47816U 21018AF  22228.66375124 -.00000007  00000-0  18408-4 0  9991","OBJECT_NAME":"STARLINK-2399","MEAN_MOTION_DDOT":"0.0000000000000","OBJECT_TYPE":"PAYLOAD","CENTER_NAME":"EARTH","REV_AT_EPOCH":"8049","TIME_SYSTEM":"UTC","INCLINATION":"53.0559","RA_OF_ASC_NODE":"332.1526","BSTAR":"0.00001840800000","LAUNCH_DATE":"2021-03-11","ECCENTRICITY":"0.00011190","COUNTRY_CODE":"US","ELEMENT_SET_NO":"999","OBJECT_ID":"2021-018AF","EPHEMERIS_TYPE":"0","SEMIMAJOR_AXIS":"6925.369","EPOCH":"2022-08-16T15:55:48.107136","MEAN_ANOMALY":"273.8681","REF_FRAME":"TEME"},{"OBJECT_ID":"2021-018AG","COUNTRY_CODE":"US","ELEMENT_SET_NO":"999","EPOCH":"2022-08-16T11:35:42.369792","SEMIMAJOR_AXIS":"6925.327","REF_FRAME":"TEME","MEAN_ANOMALY":"270.0589","EPHEMERIS_TYPE":"0","BSTAR":"0.00006549300000","ECCENTRICITY":"0.00013040","LAUNCH_DATE":"2021-03-11","RA_OF_ASC_NODE":"332.9774","INCLINATION":"53.0544","MEAN_MOTION_DDOT":"0.0000000000000","OBJECT_NAME":"STARLINK-2400","TIME_SYSTEM":"UTC","REV_AT_EPOCH":"8046","CENTER_NAME":"EARTH","OBJECT_TYPE":"PAYLOAD","GP_ID":"210337593","RCS_SIZE":"LARGE","TLE_LINE1":"1 47817U 21018AG  22228.48312928  .00000694  00000-0  65493-4 0  9992","PERIOD":"95.592","CLASSIFICATION_TYPE":"U","ARG_OF_PERICENTER":"90.0549","MEAN_ELEMENT_THEORY":"SGP4","NORAD_CAT_ID":"47817","MEAN_MOTION_DOT":"0.00000694","MEAN_MOTION":"15.06407075","PERIAPSIS":"546.289","DECAY_DATE":null,"SITE":"AFETR","FILE":"3537973","APOAPSIS":"548.095","TLE_LINE2":"2 47817  53.0544 332.9774 0001304  90.0549 270.0589 15.06407075 80464"},{"SEMIMAJOR_AXIS":"6925.339","REF_FRAME":"TEME","EPOCH":"2022-08-16T09:02:24.999072","MEAN_ANOMALY":"273.5157","EPHEMERIS_TYPE":"0","ELEMENT_SET_NO":"999","COUNTRY_CODE":"US","OBJECT_ID":"2021-018AH","ECCENTRICITY":"0.00013450","LAUNCH_DATE":"2021-03-11","BSTAR":"0.00020308000000","RA_OF_ASC_NODE":"338.4296","INCLINATION":"53.0545","TIME_SYSTEM":"UTC","CENTER_NAME":"EARTH","REV_AT_EPOCH":"8038","OBJECT_TYPE":"PAYLOAD","MEAN_MOTION_DDOT":"0.0000000000000","OBJECT_NAME":"STARLINK-2401","TLE_LINE1":"1 47818U 21018AH  22228.37667823  .00002745  00000-0  20308-3 0  9992","GP_ID":"210337344","RCS_SIZE":"LARGE","NORAD_CAT_ID":"47818","MEAN_ELEMENT_THEORY":"SGP4","PERIOD":"95.592","CLASSIFICATION_TYPE":"U","ARG_OF_PERICENTER":"86.5986","PERIAPSIS":"546.273","DECAY_DATE":null,"MEAN_MOTION_DOT":"0.00002745","MEAN_MOTION":"15.06403021","TLE_LINE2":"2 47818  53.0545 338.4296 0001345  86.5986 273.5157 15.06403021 80383","SITE":"AFETR","FILE":"3537973","APOAPSIS":"548.136"},{"RCS_SIZE":"LARGE","GP_ID":"210336092","TLE_LINE1":"1 47819U 21018AJ  22228.48588632 -.00000518  00000-0 -15891-4 0  9995","PERIOD":"95.593","ARG_OF_PERICENTER":"69.6651","CLASSIFICATION_TYPE":"U","NORAD_CAT_ID":"47819","MEAN_ELEMENT_THEORY":"SGP4","MEAN_MOTION":"15.06387389","MEAN_MOTION_DOT":"-0.00000518","PERIAPSIS":"546.287","DECAY_DATE":null,"SITE":"AFETR","FILE":"3537973","APOAPSIS":"548.218","TLE_LINE2":"2 47819  53.0559 332.9402 0001394  69.6651 290.4488 15.06387389 80532","COUNTRY_CODE":"US","OBJECT_ID":"2021-018AJ","ELEMENT_SET_NO":"999","EPOCH":"2022-08-16T11:39:40.578048","SEMIMAJOR_AXIS":"6925.387","REF_FRAME":"TEME","MEAN_ANOMALY":"290.4488","EPHEMERIS_TYPE":"0","BSTAR":"-0.00001589100000","ECCENTRICITY":"0.00013940","LAUNCH_DATE":"2021-03-11","INCLINATION":"53.0559","RA_OF_ASC_NODE":"332.9402","MEAN_MOTION_DDOT":"0.0000000000000","OBJECT_NAME":"STARLINK-2402","TIME_SYSTEM":"UTC","OBJECT_TYPE":"PAYLOAD","REV_AT_EPOCH":"8053","CENTER_NAME":"EARTH"},{"EPHEMERIS_TYPE":"0","SEMIMAJOR_AXIS":"6925.368","EPOCH":"2022-08-16T19:10:51.653280","REF_FRAME":"TEME","MEAN_ANOMALY":"269.6274","COUNTRY_CODE":"US","ELEMENT_SET_NO":"999","OBJECT_ID":"2021-018AK","LAUNCH_DATE":"2021-03-11","ECCENTRICITY":"0.00013470","BSTAR":"0.00006900500000","RA_OF_ASC_NODE":"341.5532","INCLINATION":"53.0559","REV_AT_EPOCH":"8043","CENTER_NAME":"EARTH","OBJECT_TYPE":"PAYLOAD","TIME_SYSTEM":"UTC","OBJECT_NAME":"STARLINK-2403","MEAN_MOTION_DDOT":"0.0000000000000","TLE_LINE1":"1 47820U 21018AK  22228.79920895  .00000746  00000-0  69005-4 0  9999","GP_ID":"210367070","RCS_SIZE":"LARGE","NORAD_CAT_ID":"47820","MEAN_ELEMENT_THEORY":"SGP4","CLASSIFICATION_TYPE":"U","ARG_OF_PERICENTER":"90.4869","PERIOD":"95.593","DECAY_DATE":null,"PERIAPSIS":"546.300","MEAN_MOTION_DOT":"0.00000746","MEAN_MOTION":"15.06393603","TLE_LINE2":"2 47820  53.0559 341.5532 0001347  90.4869 269.6274 15.06393603 80431","APOAPSIS":"548.166","FILE":"3538178","SITE":"AFETR"},{"PERIOD":"95.592","ARG_OF_PERICENTER":"103.6020","CLASSIFICATION_TYPE":"U","MEAN_ELEMENT_THEORY":"SGP4","NORAD_CAT_ID":"47821","RCS_SIZE":"LARGE","GP_ID":"210365818","TLE_LINE1":"1 47821U 21018AL  22228.71166242  .00000633  00000-0  61399-4 0  9993","SITE":"AFETR","APOAPSIS":"548.044","FILE":"3538178","TLE_LINE2":"2 47821  53.0564 331.9513 0001225 103.6020 256.5106 15.06405688 80505","MEAN_MOTION":"15.06405688","MEAN_MOTION_DOT":"0.00000633","PERIAPSIS":"546.348","DECAY_DATE":null,"BSTAR":"0.00006139900000","ECCENTRICITY":"0.00012250","LAUNCH_DATE":"2021-03-11","OBJECT_ID":"2021-018AL","COUNTRY_CODE":"US","ELEMENT_SET_NO":"999","SEMIMAJOR_AXIS":"6925.331","MEAN_ANOMALY":"256.5106","REF_FRAME":"TEME","EPOCH":"2022-08-16T17:04:47.633088","EPHEMERIS_TYPE":"0","MEAN_MOTION_DDOT":"0.0000000000000","OBJECT_NAME":"STARLINK-2406","TIME_SYSTEM":"UTC","OBJECT_TYPE":"PAYLOAD","CENTER_NAME":"EARTH","REV_AT_EPOCH":"8050","RA_OF_ASC_NODE":"331.9513","INCLINATION":"53.0564"},{"ELEMENT_SET_NO":"999","COUNTRY_CODE":"US","OBJECT_ID":"2021-018AM","SEMIMAJOR_AXIS":"6925.319","REF_FRAME":"TEME","EPOCH":"2022-08-16T10:55:52.320288","MEAN_ANOMALY":"262.9247","EPHEMERIS_TYPE":"0","BSTAR":"0.00009284500000","ECCENTRICITY":"0.00013730","LAUNCH_DATE":"2021-03-11","RA_OF_ASC_NODE":"343.0745","INCLINATION":"53.0558","MEAN_MOTION_DDOT":"0.0000000000000","OBJECT_NAME":"STARLINK-2407","TIME_SYSTEM":"UTC","OBJECT_TYPE":"PAYLOAD","REV_AT_EPOCH":"7999","CENTER_NAME":"EARTH","RCS_SIZE":"LARGE","GP_ID":"210342309","TLE_LINE1":"1 47822U 21018AM  22228.45546667  .00001102  00000-0  92845-4 0  9990","PERIOD":"95.592","ARG_OF_PERICENTER":"97.1898","CLASSIFICATION_TYPE":"U","MEAN_ELEMENT_THEORY":"SGP4","NORAD_CAT_ID":"47822","MEAN_MOTION":"15.06409571","MEAN_MOTION_DOT":"0.00001102","PERIAPSIS":"546.233","DECAY_DATE":null,"SITE":"AFETR","FILE":"3538030","APOAPSIS":"548.135","TLE_LINE2":"2 47822  53.0558 343.0745 0001373  97.1898 262.9247 15.06409571 79997"},{"FILE":"3538178","APOAPSIS":"548.417","SITE":"AFETR","TLE_LINE2":"2 47823  53.0557 332.1150 0001697  61.2898 298.8262 15.06390951 80502","MEAN_MOTION_DOT":"0.00000571","MEAN_MOTION":"15.06390951","DECAY_DATE":null,"PERIAPSIS":"546.066","CLASSIFICATION_TYPE":"U","ARG_OF_PERICENTER":"61.2898","PERIOD":"95.593","MEAN_ELEMENT_THEORY":"SGP4","NORAD_CAT_ID":"47823","GP_ID":"210366820","RCS_SIZE":"LARGE","TLE_LINE1":"1 47823U 21018AN  22228.67018682  .00000571  00000-0  57230-4 0  9994","OBJECT_NAME":"STARLINK-2408","MEAN_MOTION_DDOT":"0.0000000000000","REV_AT_EPOCH":"8050","CENTER_NAME":"EARTH","OBJECT_TYPE":"PAYLOAD","TIME_SYSTEM":"UTC","RA_OF_ASC_NODE":"332.1150","INCLINATION":"53.0557","BSTAR":"0.00005723000000","LAUNCH_DATE":"2021-03-11","ECCENTRICITY":"0.00016970","OBJECT_ID":"2021-018AN","COUNTRY_CODE":"US","ELEMENT_SET_NO":"999","EPHEMERIS_TYPE":"0","EPOCH":"2022-08-16T16:05:04.141248","SEMIMAJOR_AXIS":"6925.376","MEAN_ANOMALY":"298.8262","REF_FRAME":"TEME"},{"MEAN_MOTION_DDOT":"0.0000000000000","OBJECT_NAME":"STARLINK-2409","TIME_SYSTEM":"UTC","REV_AT_EPOCH":"8049","CENTER_NAME":"EARTH","OBJECT_TYPE":"PAYLOAD","INCLINATION":"53.0566","RA_OF_ASC_NODE":"332.1778","BSTAR":"-0.00000448250000","ECCENTRICITY":"0.00012500","LAUNCH_DATE":"2021-03-11","COUNTRY_CODE":"US","ELEMENT_SET_NO":"999","OBJECT_ID":"2021-018AP","SEMIMAJOR_AXIS":"6925.365","MEAN_ANOMALY":"275.5482","REF_FRAME":"TEME","EPOCH":"2022-08-16T15:50:29.792256","EPHEMERIS_TYPE":"0","SITE":"AFETR","FILE":"3538178","APOAPSIS":"548.095","TLE_LINE2":"2 47824  53.0566 332.1778 0001250  84.5649 275.5482 15.06394766 80498","MEAN_MOTION_DOT":"-0.00000348","MEAN_MOTION":"15.06394766","PERIAPSIS":"546.364","DECAY_DATE":null,"PERIOD":"95.592","CLASSIFICATION_TYPE":"U","ARG_OF_PERICENTER":"84.5649","NORAD_CAT_ID":"47824","MEAN_ELEMENT_THEORY":"SGP4","GP_ID":"210367570","RCS_SIZE":"LARGE","TLE_LINE1":"1 47824U 21018AP  22228.66006704 -.00000348  00000-0 -44825-5 0  9997"},{"OBJECT_ID":"2021-018AQ","COUNTRY_CODE":"US","ELEMENT_SET_NO":"999","EPHEMERIS_TYPE":"0","SEMIMAJOR_AXIS":"6925.367","EPOCH":"2022-08-16T11:30:25.386336","REF_FRAME":"TEME","MEAN_ANOMALY":"268.8644","BSTAR":"0.00007930200000","LAUNCH_DATE":"2021-03-11","ECCENTRICITY":"0.00013190","RA_OF_ASC_NODE":"332.9875","INCLINATION":"53.0565","OBJECT_NAME":"STARLINK-2410","MEAN_MOTION_DDOT":"0.0000000000000","REV_AT_EPOCH":"8047","CENTER_NAME":"EARTH","OBJECT_TYPE":"PAYLOAD","TIME_SYSTEM":"UTC","GP_ID":"210337594","RCS_SIZE":"LARGE","TLE_LINE1":"1 47825U 21018AQ  22228.47946049  .00000900  00000-0  79302-4 0  9991","CLASSIFICATION_TYPE":"U","ARG_OF_PERICENTER":"91.2496","PERIOD":"95.593","MEAN_ELEMENT_THEORY":"SGP4","NORAD_CAT_ID":"47825","MEAN_MOTION_DOT":"0.00000900","MEAN_MOTION":"15.06394028","DECAY_DATE":null,"PERIAPSIS":"546.318","FILE":"3537973","APOAPSIS":"548.145","SITE":"AFETR","TLE_LINE2":"2 47825  53.0565 332.9875 0001319  91.2496 268.8644 15.06394028 80479"}];
